{
  "type": "FeatureCollection",
  "features": [
    {
      "type": "Feature",
      "properties": {
        "norad_id": 66597,
        "name": "STARLINK-35820",
        "group": "last-30-days",
        "lat": -7.818010491457874,
        "lon": 102.8007501022811,
        "alt_km": 443.91754896726434,
        "timestamp": "2025-12-26T20:30:44.698763+00:00",
        "meta_object_name": "STARLINK-35820",
        "meta_object_id": "2025-270K",
        "meta_epoch": "2025-12-26T14:20:19.248864",
        "meta_mean_motion": 15.40709205,
        "meta_eccentricity": 0.00034823,
        "meta_inclination": 43.007,
        "meta_ra_of_asc_node": 112.7543,
        "meta_arg_of_pericenter": 275.8759,
        "meta_mean_anomaly": 84.1701,
        "meta_ephemeris_type": 0,
        "meta_classification_type": "U",
        "meta_norad_cat_id": 66597,
        "meta_element_set_no": 999,
        "meta_rev_at_epoch": 659,
        "meta_bstar": 0.00088822731,
        "meta_mean_motion_dot": 0.00036996,
        "meta_mean_motion_ddot": 0,
        "tle_line1": "1 66597U 25270K   25360.59744501  .00036996  00000+0  88823-3 0  9994",
        "tle_line2": "2 66597  43.0070 112.7543 0003482 275.8759  84.1701 15.40709205  6596"
      },
      "geometry": {
        "type": "Point",
        "coordinates": [
          102.8007501022811,
          -7.818010491457874
        ]
      }
    },
    {
      "type": "Feature",
      "properties": {
        "norad_id": 66598,
        "name": "STARLINK-35981",
        "group": "last-30-days",
        "lat": 41.45251569016403,
        "lon": -177.524850682168,
        "alt_km": 437.61721755917915,
        "timestamp": "2025-12-26T20:30:44.698772+00:00",
        "meta_object_name": "STARLINK-35981",
        "meta_object_id": "2025-270L",
        "meta_epoch": "2025-12-25T14:37:26.403168",
        "meta_mean_motion": 15.4075353,
        "meta_eccentricity": 0.0001255,
        "meta_inclination": 42.9985,
        "meta_ra_of_asc_node": 118.2329,
        "meta_arg_of_pericenter": 277.5792,
        "meta_mean_anomaly": 82.4921,
        "meta_ephemeris_type": 0,
        "meta_classification_type": "U",
        "meta_norad_cat_id": 66598,
        "meta_element_set_no": 999,
        "meta_rev_at_epoch": 618,
        "meta_bstar": 0.0013375,
        "meta_mean_motion_dot": 0.00056078,
        "meta_mean_motion_ddot": 0,
        "tle_line1": "1 66598U 25270L   25359.60933337  .00056078  00000+0  13375-2 0  9994",
        "tle_line2": "2 66598  42.9985 118.2329 0001255 277.5792  82.4921 15.40753530  6185"
      },
      "geometry": {
        "type": "Point",
        "coordinates": [
          -177.524850682168,
          41.45251569016403
        ]
      }
    },
    {
      "type": "Feature",
      "properties": {
        "norad_id": 66599,
        "name": "STARLINK-35930",
        "group": "last-30-days",
        "lat": -21.527454253835526,
        "lon": -44.232259330266345,
        "alt_km": 445.5047089797481,
        "timestamp": "2025-12-26T20:30:44.698781+00:00",
        "meta_object_name": "STARLINK-35930",
        "meta_object_id": "2025-270M",
        "meta_epoch": "2025-12-26T14:55:36.157728",
        "meta_mean_motion": 15.40718778,
        "meta_eccentricity": 0.00018483,
        "meta_inclination": 43.0021,
        "meta_ra_of_asc_node": 112.0674,
        "meta_arg_of_pericenter": 277.375,
        "meta_mean_anomaly": 82.6897,
        "meta_ephemeris_type": 0,
        "meta_classification_type": "U",
        "meta_norad_cat_id": 66599,
        "meta_element_set_no": 999,
        "meta_rev_at_epoch": 649,
        "meta_bstar": 0.0010665999,
        "meta_mean_motion_dot": 0.0004454,
        "meta_mean_motion_ddot": 0,
        "tle_line1": "1 66599U 25270M   25360.62194627  .00044540  00000+0  10666-2 0  9991",
        "tle_line2": "2 66599  43.0021 112.0674 0001848 277.3750  82.6897 15.40718778  6497"
      },
      "geometry": {
        "type": "Point",
        "coordinates": [
          -44.232259330266345,
          -21.527454253835526
        ]
      }
    },
    {
      "type": "Feature",
      "properties": {
        "norad_id": 66600,
        "name": "STARLINK-35980",
        "group": "last-30-days",
        "lat": 33.73362525639167,
        "lon": -114.83559551706541,
        "alt_km": 439.6050402111241,
        "timestamp": "2025-12-26T20:30:44.698791+00:00",
        "meta_object_name": "STARLINK-35980",
        "meta_object_id": "2025-270N",
        "meta_epoch": "2025-12-26T09:04:46.532640",
        "meta_mean_motion": 15.40707143,
        "meta_eccentricity": 0.00017338,
        "meta_inclination": 43.0012,
        "meta_ra_of_asc_node": 113.6821,
        "meta_arg_of_pericenter": 272.0019,
        "meta_mean_anomaly": 88.0639,
        "meta_ephemeris_type": 0,
        "meta_classification_type": "U",
        "meta_norad_cat_id": 66600,
        "meta_element_set_no": 999,
        "meta_rev_at_epoch": 635,
        "meta_bstar": 0.00054432773,
        "meta_mean_motion_dot": 0.00022507,
        "meta_mean_motion_ddot": 0,
        "tle_line1": "1 66600U 25270N   25360.37831635  .00022507  00000+0  54433-3 0  9993",
        "tle_line2": "2 66600  43.0012 113.6821 0001733 272.0019  88.0639 15.40707143  6357"
      },
      "geometry": {
        "type": "Point",
        "coordinates": [
          -114.83559551706541,
          33.73362525639167
        ]
      }
    },
    {
      "type": "Feature",
      "properties": {
        "norad_id": 66601,
        "name": "STARLINK-35978",
        "group": "last-30-days",
        "lat": 17.311922084487477,
        "lon": 130.72016888688853,
        "alt_km": 441.04468154958795,
        "timestamp": "2025-12-26T20:30:44.698802+00:00",
        "meta_object_name": "STARLINK-35978",
        "meta_object_id": "2025-270P",
        "meta_epoch": "2025-12-26T14:10:38.425728",
        "meta_mean_motion": 15.40750428,
        "meta_eccentricity": 4.834e-05,
        "meta_inclination": 43.0003,
        "meta_ra_of_asc_node": 112.7006,
        "meta_arg_of_pericenter": 109.4058,
        "meta_mean_anomaly": 250.6851,
        "meta_ephemeris_type": 0,
        "meta_classification_type": "U",
        "meta_norad_cat_id": 66601,
        "meta_element_set_no": 999,
        "meta_rev_at_epoch": 632,
        "meta_bstar": 0.0012988894,
        "meta_mean_motion_dot": 0.00054433,
        "meta_mean_motion_ddot": 0,
        "tle_line1": "1 66601U 25270P   25360.59072252  .00054433  00000+0  12989-2 0  9992",
        "tle_line2": "2 66601  43.0003 112.7006 0000483 109.4058 250.6851 15.40750428  6324"
      },
      "geometry": {
        "type": "Point",
        "coordinates": [
          130.72016888688853,
          17.311922084487477
        ]
      }
    },
    {
      "type": "Feature",
      "properties": {
        "norad_id": 66602,
        "name": "STARLINK-36050",
        "group": "last-30-days",
        "lat": -30.70605356490256,
        "lon": 71.76526520315693,
        "alt_km": 445.51863118012625,
        "timestamp": "2025-12-26T20:30:44.698811+00:00",
        "meta_object_name": "STARLINK-36050",
        "meta_object_id": "2025-270Q",
        "meta_epoch": "2025-12-25T16:43:02.809920",
        "meta_mean_motion": 15.40700977,
        "meta_eccentricity": 0.0001645,
        "meta_inclination": 43.0015,
        "meta_ra_of_asc_node": 118.0318,
        "meta_arg_of_pericenter": 265.3837,
        "meta_mean_anomaly": 94.6831,
        "meta_ephemeris_type": 0,
        "meta_classification_type": "U",
        "meta_norad_cat_id": 66602,
        "meta_element_set_no": 999,
        "meta_rev_at_epoch": 624,
        "meta_bstar": 0.0014070321,
        "meta_mean_motion_dot": 0.00058929,
        "meta_mean_motion_ddot": 0,
        "tle_line1": "1 66602U 25270Q   25359.69656030  .00058929  00000+0  14070-2 0  9991",
        "tle_line2": "2 66602  43.0015 118.0318 0001645 265.3837  94.6831 15.40700977  6240"
      },
      "geometry": {
        "type": "Point",
        "coordinates": [
          71.76526520315693,
          -30.70605356490256
        ]
      }
    },
    {
      "type": "Feature",
      "properties": {
        "norad_id": 66603,
        "name": "STARLINK-36048",
        "group": "last-30-days",
        "lat": 37.56344741880904,
        "lon": 166.7084891785422,
        "alt_km": 438.4402052478299,
        "timestamp": "2025-12-26T20:30:44.698820+00:00",
        "meta_object_name": "STARLINK-36048",
        "meta_object_id": "2025-270R",
        "meta_epoch": "2025-12-25T17:47:22.397280",
        "meta_mean_motion": 15.40700438,
        "meta_eccentricity": 0.0001458,
        "meta_inclination": 42.9995,
        "meta_ra_of_asc_node": 117.5035,
        "meta_arg_of_pericenter": 277.8651,
        "meta_mean_anomaly": 82.204,
        "meta_ephemeris_type": 0,
        "meta_classification_type": "U",
        "meta_norad_cat_id": 66603,
        "meta_element_set_no": 999,
        "meta_rev_at_epoch": 625,
        "meta_bstar": 0.0012828673,
        "meta_mean_motion_dot": 0.00053664,
        "meta_mean_motion_ddot": 0,
        "tle_line1": "1 66603U 25270R   25359.74123145  .00053664  00000+0  12829-2 0  9995",
        "tle_line2": "2 66603  42.9995 117.5035 0001458 277.8651  82.2040 15.40700438  6258"
      },
      "geometry": {
        "type": "Point",
        "coordinates": [
          166.7084891785422,
          37.56344741880904
        ]
      }
    }
  ]
}